#dP2022  4 16 18  0  0.00000000      96 __u+U ITR00 EXT  IAC
## 2205 583200.00000000   900.00000000 59685 0.7500000000000
+  116   C06C07C08C09C10C11C12C13C14C16C19C20C21C22C23C24C25
+        C26C27C28C29C30C32C33C34C35C36C37C38C39C40C41C42C43
+        C44C45C46E01E02E03E04E05E07E08E09E10E11E12E13E14E15
+        E18E19E21E24E25E26E27E30E31E33E34E36G01G02G03G04G05
+        G06G07G08G09G10G12G13G14G15G16G17G18G19G20G21G22G23
+        G24G25G26G27G28G29G30G31G32J02J03R01R02R03R04R05R07
+        R08R09R11R12R13R14R15R17R18R19R20R21R22R24  0  0  0
++         8  9  8 10  9  9  9  9  9 11  8  8  8  9  7  7  9
++         8 10  9  9  7  8 10  9  7  7  9  9 11  9  8  7  7
++         6  7 10  7  9  9  7  8  6  8  8  7  9  6  8  7  7
++         8  8  7  8  9  7  7  7  8  7  7  7  7  9  8  8  8
++         8  9  7  8  7  7  8  7  7  8  8  7  7  7  8  7  7
++         8  6  9  8  8  7  9  8  7 10  9  7  8  7  9  8  7
++         8  8  9  9  8  8  7  8  8  8 11  9  9  9  0  0  0
%c M  cc GPS ccc cccc cccc cccc cccc ccccc ccccc ccccc ccccc
%c cc cc ccc ccc cccc cccc cccc cccc ccccc ccccc ccccc ccccc
%f  0.0000000  0.000000000  0.00000000000  0.000000000000000
%f  0.0000000  0.000000000  0.00000000000  0.000000000000000
%i    0    0    0    0      0      0      0      0         0
%i    0    0    0    0      0      0      0      0         0
/* IAC                                ULTRA-RAPID PREDICTION
/* S/V CLOCKS ARE ALIGNED TO GNSS TIME                      
/* G:C1WC2W R:C1PC2P E:C1XC5X C:C2IC6I J:C1CC2S             
/* PCV:IGS14_2196 OL/AL:FES2004  NONE     YN ORB:CoN CLK:CoN
*  2022 04 17  4 45  0.00000000
PC06  -5050.328639  38604.793216 -15908.516140   -190.194739
PC07  -9640.837643  25279.429333  32327.109712     -3.468860
PC08 -20627.320708  32138.154634 -18015.950560    263.244439
PC09   1278.198183  41457.384742  -5498.142773   -703.704209
PC10    -24.218795  27470.461613  32290.218058    135.972032
PC11  -4974.187051 -27440.820438   -446.898972    296.597431
PC12   6800.282207 -21343.233600 -16606.223263   -627.429975
PC13 -11921.009679  32132.917598 -24593.697153    -58.456002
PC14  -8247.002089 -17272.433010  20313.277710    459.001050
PC16  -6043.170610  37410.816146 -18038.647746    120.232499
PC19  18049.482189  15834.235086 -14208.124464    877.580043
PC20   -621.442299  16168.235984 -22718.805037   -880.633373
PC21  20183.677133  -6740.815560  18090.039037   -126.550418
PC22  27032.111179   6388.313777   2861.384586   -968.391714
PC23 -20771.340167    831.298722 -18617.712082   -932.578712
PC24  11291.509282 -22308.454396 -12379.686672   -954.201942
PC25  -8018.548910 -14552.722346 -22426.265756   -749.875363
PC26  21582.976185 -17341.576527   3327.248664    750.674889
PC27 -12173.829136  13440.901577  21182.272850    709.061730
PC28 -16536.395455  -7099.014528  21328.097317     56.209973
PC29  12055.738549  23626.448582  -8671.409574    542.417361
PC30   -243.864583  26246.574461   9428.101358    497.066840
PC32 -20142.408045   6863.418234 -18024.374037   -963.149381
PC33 -18008.774084 -15792.132091  14314.159136   -967.649765
PC34   -386.373180 -26584.295378  -8537.792477   -423.837452
PC35  16851.145271   7490.476078 -20944.659788    232.395286
PC36   7182.415124  15115.869555  22352.036555   -964.115124
PC37 -22339.968620  16146.578579  -4416.421999   -922.724211
PC38 -24710.625074  32551.583922 -10622.172556    225.708432
PC39  -8531.959978  33689.367213 -23729.769698     34.949854
PC40 -13964.335337  18772.320593  35037.174354    261.502805
PC41 -26997.497208  -6643.698680  -2322.974699   -967.299502
PC42   1848.320776 -15966.359415  22859.983160   -952.298085
PC43 -11652.727562 -24077.892774   7988.833344   -929.497615
PC44  11917.697573 -13738.441593 -21189.218969    630.320962
PC45  20812.438219  -1150.125736  18543.782192    733.374729
PC46 -10090.188332  22215.743850  13575.582756   -276.094220
PE01 -28964.591850   6069.273900   -825.462784   -617.891902
PE02  28929.549775  -6182.790254    652.244722    293.331389
PE03  20885.492883    607.404104  20975.333706   -548.828330
PE04  -6981.390607  16707.355511 -23404.171513  -1008.254341
PE05  22764.039208  17895.209027   6157.452903   -190.115052
PE07 -11361.876048 -24533.265362  12049.216744   -659.392203
PE08   6549.573263 -16858.688193  23435.836561   -513.663507
PE09  11668.673211  24452.396911 -11928.921291   -486.969877
PE10  -6656.938561  28726.020396  -2566.556754   -507.203384
PE11    434.151692  26864.473538 -12406.064068   3936.017198
PE12 -12489.901462  25860.797239   7110.810756   4658.982199
PE13     35.436795 -27150.264547  11810.350703    428.076593
PE14 -17915.937999  -8726.264164  12505.811441  -1816.833550
PE15  12476.850039 -25846.222231  -7267.193848    751.201495
PE18  24313.437979   7188.694965 -20360.848607  -1555.467118
PE19 -21793.259270  -3098.994836 -19779.075508  -3145.498076
PE21 -23299.116173  -6502.010226 -17069.787204   -728.911436
PE24   2451.145849  16543.308825  24406.683352   -565.258093
PE25  23103.492326   6675.868464  17254.064369   -570.681350
PE26 -12934.475362 -11573.501399  23980.812113  -1039.356262
PE27  -3951.075361 -16172.803056 -24475.863752   -278.027275
PE30  18525.151176 -15933.450946 -16707.762151   -437.077083
PE31 -17573.488815  16251.449596  17420.322860   -495.192973
PE33 -17506.946115   9286.101452  21984.475768   -457.537469
PE34  17498.434330  -9549.067757 -21888.698865   -512.456466
PE36  12348.704704  12485.972341 -23824.249061   -360.781718
PG01 -13861.137679  21697.848986   5409.933684    383.256607
PG02  16140.823113  -4021.058166 -20088.430409   -653.139034
PG03 -16952.681192  12778.624285 -15993.369947   -209.754631
PG04  -7444.696907  14809.020315 -20725.472168   -175.266404
PG05  26033.985592  -5263.989128   1934.874108    -78.583397
PG06   9368.096611  13085.908952 -21047.815844    269.579125
PG07  -3311.966754  24366.430257   9756.548281    320.402176
PG08 -14552.868462   5552.782811  21515.409464    -64.265160
PG09   2914.231509  21628.340237 -15180.852842   -343.198134
PG10 -13299.981954 -12096.438296  19794.210525   -381.961265
PG12  20573.227372 -10077.474808 -13599.120708   -201.552026
PG13  17493.395915   4272.824315  19429.268683    295.553889
PG14  11705.938532  13306.374405  19802.058389   -103.025549
PG15  13802.988329  -8030.873520  20843.339653    -68.332109
PG16 -26729.969978   -997.739196  -2132.292831   -492.410710
PG17  13836.611986  22635.593905    780.398625    601.350174
PG18   4560.013665 -24474.158538   9094.825579    193.547665
PG19  16848.130080  19462.835434  -7212.586069    145.406528
PG20  25115.495747   -577.247969  -8240.062776    515.790649
PG21 -16561.999201  13551.694689  15935.413199    160.504727
PG22 -17842.283976 -17570.423073  -8708.501065    244.608274
PG23   -883.840456 -15059.232438  21848.685627    -15.519403
PG24  14448.808681 -19693.560704   9613.669326    255.463497
PG25   7037.276850 -15446.843608 -20650.481695    312.988158
PG26 -22594.487242  -5972.166278 -12992.686961    199.184978
PG27 -19336.581647  -7051.648961  16796.344773    184.855604
PG28  19196.392044  10381.851048  15490.103617    370.613608
PG29   -454.012239 -21143.013096 -16083.310320   -503.909690
PG30   3602.107352  20646.631082  16247.509538   -524.110495
PG31 -11727.263112 -10607.364813 -21409.930861   -173.750760
PG32 -16665.567537 -20751.763611  -1455.331227   -107.100811
PJ02 -30605.032827  26179.389390  17524.667969     -2.782100
PJ03 -26978.049483  25816.663433  24620.475576     -1.580129
PR01  16626.667844  -2013.085198  19253.036424      7.855642
PR02  -1838.250164 -12807.919256  22042.005980    515.758860
PR03 -17441.308408 -15150.249369  10922.870283     55.057155
PR04 -23018.816704  -9130.517826  -6101.736425    137.090017
PR05 -15990.349629   1870.831919 -19776.025181     91.283854
PR07  17907.827599  15004.931271 -10141.124704     33.952948
PR08  23055.435955   8872.013833   6370.527204    -64.661169
PR09 -10200.438888  16454.049061  16582.259183     50.200154
PR11  19024.150570  -2885.001428  16760.715259     40.994801
PR12  21455.120472 -13773.893252   -314.749116     17.967899
PR13  11478.267961 -16452.065466 -15773.085110    -20.992470
PR14  -6334.296364  -9134.157046 -22950.702983     76.609482
PR15 -19507.782618   3174.194579 -16109.702149     96.768312
PR17  -5988.149841 -21812.266270  11765.581084    518.201981
PR18 -10139.883702  -7317.103981  22254.613902    113.826789
PR19  -9578.653132   9771.469225  21523.105568   -185.660889
PR20  -2972.709671  24491.347065   6387.691964    -68.781997
PR21   6382.546621  20981.349528 -13047.943543   -293.960460
PR22  10147.879115   6269.345325 -22548.051703   -177.403919
PR24   2173.997229 -24781.526773  -5613.074633     89.439362
EOF
